{"type": "FeatureCollection", "features": [ {"type": "Feature", "properties": {"norad_id": 17070, "name": "POLAR BEAR", "group": "nnss", "lat": 6.656896574064458, "lon": -176.12377127806127, "alt_km": 996.23641762442, "timestamp": "2025-12-11T07:02:23.998831+00:00", "meta": {"OBJECT_NAME": "POLAR BEAR", "OBJECT_ID": "1986-088A", "EPOCH": "2025-12-10T20:34:58.723104", "MEAN_MOTION": 13.75250249, "ECCENTRICITY": 0.00408603, "INCLINATION": 89.6175, "RA_OF_ASC_NODE": 183.8491, "ARG_OF_PERICENTER": 124.6945, "MEAN_ANOMALY": 246.6576, "EPHEMERIS_TYPE": 0, "CLASSIFICATION_TYPE": "U", "NORAD_CAT_ID": 17070, "ELEMENT_SET_NO": 999, "REV_AT_EPOCH": 95953, "BSTAR": 0.00014880802, "MEAN_MOTION_DOT": 1.55e-06, "MEAN_MOTION_DDOT": 0}, "tle": {"line1": "1 17070U 86088A   25344.85762411  .00000155  00000+0  14881-3 0  9992", "line2": "2 17070  89.6175 183.8491 0040860 124.6945 246.6576 13.75250249959531"}}, "geometry": {"type": "Point", "coordinates": [-176.12377127806127, 6.656896574064458]}}, {"type": "Feature", "properties": {"norad_id": 18361, "name": "OSCAR 27", "group": "nnss", "lat": 62.075629548345844, "lon": 78.51174917195898, "alt_km": 1159.4898743517988, "timestamp": "2025-12-11T07:02:23.998841+00:00", "meta": {"OBJECT_NAME": "OSCAR 27", "OBJECT_ID": "1987-080A", "EPOCH": "2025-12-10T12:52:14.922048", "MEAN_MOTION": 13.44906041, "ECCENTRICITY": 0.01027472, "INCLINATION": 90.3742, "RA_OF_ASC_NODE": 79.1899, "ARG_OF_PERICENTER": 230.1795, "MEAN_ANOMALY": 129.0276, "EPHEMERIS_TYPE": 0, "CLASSIFICATION_TYPE": "U", "NORAD_CAT_ID": 18361, "ELEMENT_SET_NO": 999, "REV_AT_EPOCH": 87527, "BSTAR": 0.0002684905, "MEAN_MOTION_DOT": 1.7e-06, "MEAN_MOTION_DDOT": 0}, "tle": {"line1": "1 18361U 87080A   25344.53628382  .00000170  00000+0  26849-3 0  9996", "line2": "2 18361  90.3742  79.1899 0102747 230.1795 129.0276 13.44906041875275"}}, "geometry": {"type": "Point", "coordinates": [78.51174917195898, 62.075629548345844]}}, {"type": "Feature", "properties": {"norad_id": 18362, "name": "OSCAR 29", "group": "nnss", "lat": 76.85041517318625, "lon": 78.06928794000461, "alt_km": 1162.8478647191405, "timestamp": "2025-12-11T07:02:23.998851+00:00", "meta": {"OBJECT_NAME": "OSCAR 29", "OBJECT_ID": "1987-080B", "EPOCH": "2025-12-10T16:59:44.030400", "MEAN_MOTION": 13.44447886, "ECCENTRICITY": 0.01038318, "INCLINATION": 90.3753, "RA_OF_ASC_NODE": 79.655, "ARG_OF_PERICENTER": 253.0679, "MEAN_ANOMALY": 233.2992, "EPHEMERIS_TYPE": 0, "CLASSIFICATION_TYPE": "U", "NORAD_CAT_ID": 18362, "ELEMENT_SET_NO": 999, "REV_AT_EPOCH": 87482, "BSTAR": 0.00023768207, "MEAN_MOTION_DOT": 1.5e-06, "MEAN_MOTION_DDOT": 0}, "tle": {"line1": "1 18362U 87080B   25344.70814850  .00000150  00000+0  23768-3 0  9998", "line2": "2 18362  90.3753  79.6550 0103831 253.0679 233.2992 13.44447886874827"}}, "geometry": {"type": "Point", "coordinates": [78.06928794000461, 76.85041517318625]}}, {"type": "Feature", "properties": {"norad_id": 19070, "name": "OSCAR 23", "group": "nnss", "lat": -59.117897795505606, "lon": 16.88555447707253, "alt_km": 1224.9343000467989, "timestamp": "2025-12-11T07:02:23.998862+00:00", "meta": {"OBJECT_NAME": "OSCAR 23", "OBJECT_ID": "1988-033A", "EPOCH": "2025-12-10T22:33:18.530784", "MEAN_MOTION": 13.2778673, "ECCENTRICITY": 0.01893831, "INCLINATION": 90.3214, "RA_OF_ASC_NODE": 16.3368, "ARG_OF_PERICENTER": 184.9275, "MEAN_ANOMALY": 225.1426, "EPHEMERIS_TYPE": 0, "CLASSIFICATION_TYPE": "U", "NORAD_CAT_ID": 19070, "ELEMENT_SET_NO": 999, "REV_AT_EPOCH": 82229, "BSTAR": 0.00020810438, "MEAN_MOTION_DOT": 1.12e-06, "MEAN_MOTION_DDOT": 0}, "tle": {"line1": "1 19070U 88033A   25344.93979781  .00000112  00000+0  20810-3 0  9997", "line2": "2 19070  90.3214  16.3368 0189383 184.9275 225.1426 13.27786730822292"}}, "geometry": {"type": "Point", "coordinates": [16.88555447707253, -59.117897795505606]}}, {"type": "Feature", "properties": {"norad_id": 19071, "name": "OSCAR 32", "group": "nnss", "lat": 46.572553172568334, "lon": 16.13963165265702, "alt_km": 1228.2142649375646, "timestamp": "2025-12-11T07:02:23.998872+00:00", "meta": {"OBJECT_NAME": "OSCAR 32", "OBJECT_ID": "1988-033B", "EPOCH": "2025-12-10T20:49:08.698656", "MEAN_MOTION": 13.27953597, "ECCENTRICITY": 0.01882087, "INCLINATION": 90.3218, "RA_OF_ASC_NODE": 16.4665, "ARG_OF_PERICENTER": 171.99, "MEAN_ANOMALY": 1.7043, "EPHEMERIS_TYPE": 0, "CLASSIFICATION_TYPE": "U", "NORAD_CAT_ID": 19071, "ELEMENT_SET_NO": 999, "REV_AT_EPOCH": 82240, "BSTAR": 0.00014237591, "MEAN_MOTION_DOT": 8e-07, "MEAN_MOTION_DDOT": 0}, "tle": {"line1": "1 19071U 88033B   25344.86746179  .00000080  00000+0  14238-3 0  9994", "line2": "2 19071  90.3218  16.4665 0188208 171.9900   1.7043 13.27953597822407"}}, "geometry": {"type": "Point", "coordinates": [16.13963165265702, 46.572553172568334]}}, {"type": "Feature", "properties": {"norad_id": 19223, "name": "NOVA 2", "group": "nnss", "lat": -88.5699488800617, "lon": 77.76128152768001, "alt_km": 1188.667714839914, "timestamp": "2025-12-11T07:02:23.998882+00:00", "meta": {"OBJECT_NAME": "NOVA 2", "OBJECT_ID": "1988-052A", "EPOCH": "2025-12-10T17:44:33.779904", "MEAN_MOTION": 13.22935704, "ECCENTRICITY": 0.0030761, "INCLINATION": 89.9872, "RA_OF_ASC_NODE": 78.275, "ARG_OF_PERICENTER": 22.3603, "MEAN_ANOMALY": 132.2155, "EPHEMERIS_TYPE": 0, "CLASSIFICATION_TYPE": "U", "NORAD_CAT_ID": 19223, "ELEMENT_SET_NO": 999, "REV_AT_EPOCH": 80921, "BSTAR": 0.00020145251, "MEAN_MOTION_DOT": 9.4e-07, "MEAN_MOTION_DDOT": 0}, "tle": {"line1": "1 19223U 88052A   25344.73927986  .00000094  00000+0  20145-3 0  9996", "line2": "2 19223  89.9872  78.2750 0030761  22.3603 132.2155 13.22935704809219"}}, "geometry": {"type": "Point", "coordinates": [77.76128152768001, -88.5699488800617]}}, {"type": "Feature", "properties": {"norad_id": 19419, "name": "OSCAR 25", "group": "nnss", "lat": -65.55215719540203, "lon": -159.83720782402762, "alt_km": 1036.482457560579, "timestamp": "2025-12-11T07:02:23.998892+00:00", "meta": {"OBJECT_NAME": "OSCAR 25", "OBJECT_ID": "1988-074A", "EPOCH": "2025-12-10T19:57:35.303040", "MEAN_MOTION": 13.42622819, "ECCENTRICITY": 0.00943725, "INCLINATION": 90.0349, "RA_OF_ASC_NODE": 20.238, "ARG_OF_PERICENTER": 251.3833, "MEAN_ANOMALY": 284.042, "EPHEMERIS_TYPE": 0, "CLASSIFICATION_TYPE": "U", "NORAD_CAT_ID": 19419, "ELEMENT_SET_NO": 999, "REV_AT_EPOCH": 82614, "BSTAR": 0.00022111673, "MEAN_MOTION_DOT": 1.37e-06, "MEAN_MOTION_DDOT": 0}, "tle": {"line1": "1 19419U 88074A   25344.83165860  .00000137  00000+0  22112-3 0  9997", "line2": "2 19419  90.0349  20.2380 0094372 251.3833 284.0420 13.42622819826145"}}, "geometry": {"type": "Point", "coordinates": [-159.83720782402762, -65.55215719540203]}}, {"type": "Feature", "properties": {"norad_id": 19420, "name": "OSCAR 31", "group": "nnss", "lat": 51.336577637102096, "lon": -159.36506324223674, "alt_km": 1124.3530950163986, "timestamp": "2025-12-11T07:02:23.998918+00:00", "meta": {"OBJECT_NAME": "OSCAR 31", "OBJECT_ID": "1988-074B", "EPOCH": "2025-12-10T20:31:52.362624", "MEAN_MOTION": 13.42584166, "ECCENTRICITY": 0.00926505, "INCLINATION": 90.0365, "RA_OF_ASC_NODE": 20.5877, "ARG_OF_PERICENTER": 245.4091, "MEAN_ANOMALY": 289.0588, "EPHEMERIS_TYPE": 0, "CLASSIFICATION_TYPE": "U", "NORAD_CAT_ID": 19420, "ELEMENT_SET_NO": 999, "REV_AT_EPOCH": 82625, "BSTAR": 0.00017187176, "MEAN_MOTION_DOT": 1.08e-06, "MEAN_MOTION_DDOT": 0}, "tle": {"line1": "1 19420U 88074B   25344.85546716  .00000108  00000+0  17187-3 0  9998", "line2": "2 19420  90.0365  20.5877 0092650 245.4091 289.0588 13.42584166826250"}}, "geometry": {"type": "Point", "coordinates": [-159.36506324223674, 51.336577637102096]}}]}